CZ-4B R/B               
1 28059U 03049C   18181.76557122  .00000007  00000-0  13564-4 0  9994
2 28059  98.5193  79.3037 0050275 170.5333 226.1406 14.52530793778643
CZ-2C R/B               
1 28222U 04012C   18181.94606199  .00000421  00000-0  29591-4 0  9993
2 28222  97.5762 137.6891 0047003 329.1127  71.3563 15.09752468777753
SL-16 R/B               
1 28353U 04021B   18181.91977445 -.00000186  00000-0 -72657-4 0  9991
2 28353  70.9987   4.1878 0005901 323.5583  36.5137 14.14205226725696
CZ-2C R/B               
1 28480U 04046B   18181.82077552  .00000013  00000-0  20151-4 0  9998
2 28480  98.1758 258.3108 0141896 186.4502 282.8588 14.25677524708182
ARIANE 5 R/B            
1 28499U 04049H   18181.91075855  .00000031  00000-0  11045-4 0  9997
2 28499  98.0594 271.6395 0093641  72.6273  65.5587 14.79908688729961
CZ-2D R/B               
1 28738U 05024B   18181.70530133  .00000425  00000-0  28714-4 0  9997
2 28738  97.4525 215.2086 0013274 135.6509 224.5787 15.11562987712967
SUZAKU (ASTRO-EII)      
1 28773U 05025A   18181.85710919  .00000766  00000-0  33891-4 0  9995
2 28773  31.3838 359.2416 0004671 193.7311 166.3209 15.16593858714895
ALOS (DAICHI)           
1 28931U 06002A   18182.04930885  .00000136  00000-0  35472-4 0  9993
2 28931  97.8184 194.8905 0000904 119.3423 240.7876 14.62505357662831
H-2A R/B                
1 28932U 06002B   18182.46009787  .00000114  00000-0  16859-4 0  9992
2 28932  98.2337 126.2601 0090063 147.9230 328.8460 14.91735242674343
AKARI (ASTRO-F)         
1 28939U 06005A   18181.88428563  .00001832  00000-0  55731-4 0  9994
2 28939  98.2066  68.6509 0100297 310.8221  48.4352 15.30895728670999
RESURS-DK 1             
1 29228U 06021A   18182.51188554  .00000040  00000-0  10400-4 0  9992
2 29228  69.9344 212.8544 0002510 158.5092 201.6174 15.02333762665060
GENESIS 1               
1 29252U 06029A   18182.18864030  .00000487  00000-0  34096-4 0  9992
2 29252  64.5055 127.0931 0047871 284.1580  75.4227 15.17353439659328
CZ-4B R/B               
1 29507U 06046C   18182.12403455  .00000903  00000-0  75214-4 0  9998
2 29507  97.7863 194.9148 0048381  50.0522 310.4936 15.00338487637853
CZ-2C R/B               
1 31114U 07010B   18182.34369583 -.00000022  00000-0  84766-5 0  9990
2 31114  98.3600  69.4341 0059400 193.2821 166.6795 14.19274569581292
COSMO-SKYMED 1          
1 31598U 07023A   18182.51560686 -.00000302  00000-0 -31340-4 0  9997
2 31598  97.8939   5.8861 0001531  90.9315 269.2071 14.82151531598637
GENESIS 2               
1 31789U 07028A   18181.42997305  .00000355  00000-0  28394-4 0  9996
2 31789  64.5027 168.9327 0018642 320.3708  39.6050 15.16583606606257
COSMOS 2428             
1 31792U 07029A   18182.52617092  .00000211  00000-0  14000-3 0  9994
2 31792  70.9658 336.4847 0005137  66.9066 293.2596 14.12543950567630
SL-16 R/B               
1 31793U 07029B   18181.81370105 -.00000325  00000-0 -14478-3 0  9994
2 31793  70.9763 313.8384 0002850 273.3820 193.6943 14.14400665568215
KORONAS-FOTON           
1 33504U 09003A   18181.68593097  .00000145  00000-0  59922-5 0  9995
2 33504  82.4418 216.7497 0017884 239.1332 120.8141 15.15191025518686
H-2A R/B                
1 38341U 12025E   18182.39047042  .00000099  00000-0  19127-4 0  9990
2 38341  98.4223 285.1918 0056092  19.5428 340.7917 14.83767375331115
CUSAT 2 & FALCON 9 R/B  
1 39271U 13055G   18181.85297879  .00007992  00000-0  19884-3 0  9990
2 39271  80.9684 315.1009 0615263 158.0261 204.8593 14.41696451247100
ALOS-2                  
1 39766U 14029A   18182.19709561  .00000195  00000-0  32940-4 0  9992
2 39766  97.9216 279.0814 0001529  87.4999 272.6395 14.79473756221643
SL-27 R/B               
1 40354U 14084B   18182.48760931  .00000558  00000-0  15416-4 0  9990
2 40354  74.7391  70.1262 0040253 261.1162  98.5492 15.39094701198194
ASTRO-H (HITOMI)        
1 41337U 16012A   18181.56783973  .00000230  00000-0  11751-4 0  9999
2 41337  31.0048 240.7631 0012414 178.3017 181.7662 14.98478062129729
TIANGONG-2              
1 41765U 16057A   18182.53565758  .00002849  00000-0  40347-4 0  9991
2 41765  42.7848 254.9732 0007377 355.2658 137.1015 15.58968671102263
SHENZHOU-11 MODULE      
1 41868U 16061G   18181.84998843  .00007499  00000-0  57667-4 0  9997
2 41868  42.7940 229.1601 0000586 321.2408  13.0861 15.72511639 92421
